QUANTUTONG 1            
1 43158U 18008D   22002.42879813  .00003736  00000+0  21945-3 0  9998
2 43158  97.3787  64.3446 0013526   7.3553  57.8609 15.12225750218007
S-NET D                 
1 43186U 18014G   22002.38961882  .00000331  00000+0  33486-4 0  9991
2 43186  97.6686 271.2735 0011667 130.1910 230.0335 14.97306331214065
S-NET B                 
1 43187U 18014H   22002.25596289  .00000336  00000+0  33904-4 0  9993
2 43187  97.6683 271.1010 0011701 130.5190 229.7053 14.97305438214048
S-NET A                 
1 43188U 18014J   22002.32298697  .00000337  00000+0  34040-4 0  9997
2 43188  97.6686 271.2210 0011673 130.4060 229.8183 14.97304563214052
S-NET C                 
1 43189U 18014K   22002.32352036  .00000361  00000+0  36047-4 0  9992
2 43189  97.6681 271.1581 0011666 130.3720 229.8522 14.97303528212608
FENGMANIU-1 (FMN-1)     
1 43192U 18015A   22002.61483050  .00012183  00000+0  41172-3 0  9999
2 43192  97.5117 144.6295 0012026 258.8227 230.0095 15.30730449218025
SHAONIAN XING           
1 43199U 18015H   22002.61693406  .00008013  00000+0  28324-3 0  9995
2 43199  97.4902 140.9567 0013507 270.1497 218.4305 15.29376314218068
LUOJIA-1 01             
1 43485U 18048B   22002.44845816  .00000594  00000+0  91465-4 0  9997
2 43485  97.9489  86.3246 0011751  22.4276 337.7438 14.77001382193369
SURFSAT                 
1 43614U 18070B   22002.32523858  .00011855  00000+0  24855-3 0  9992
2 43614  93.0205  28.9539 0010760 320.7464  39.3012 15.45326168185345
CP7 (DAVE)              
1 43615U 18070C   22002.06351021  .00012039  00000+0  25614-3 0  9994
2 43615  93.0209  28.7685 0011048 322.2241  37.8239 15.44888900185283
ELFIN-B                 
1 43616U 18070D   22002.57160444  .00016564  00000+0  29606-3 0  9990
2 43616  93.0157  29.5103 0009604 313.4282  46.6178 15.49930121185550
ELFIN-A                 
1 43617U 18070E   22002.51610685  .00018985  00000+0  32963-3 0  9991
2 43617  93.0214  30.5510 0008839 310.0392  50.0093 15.50750418185571
CZ-4B R/B               
1 43656U 18081B   22002.33117581  .00000054  00000+0  34609-4 0  9991
2 43656  99.3768 122.9879 0207631 261.3847  96.3761 14.30500360166609
CUBEBEL-1 (BSUSAT-1)    
1 43666U 18083E   22002.61759674  .00005343  00000+0  24758-3 0  9999
2 43666  97.4399  33.4014 0013654 186.9464 292.9908 15.20426819176269
CHANGSHAGAOXIN (TY 4-01)
1 43669U 18083H   22002.57362624  .00004563  00000+0  22023-3 0  9998
2 43669  97.4311  29.8308 0009998 181.8570 296.5480 15.19130229176102
TEN-KOH                 
1 43677U 18084G   22002.36435948  .00000686  00000+0  75768-4 0  9992
2 43677  97.9425 131.2297 0017316  98.6234 261.6947 14.90649535172933
DIWATA-2B               
1 43678U 18084H   22002.46301818  .00000922  00000+0  96942-4 0  9992
2 43678  97.9470 134.0958 0011377 110.5727 249.6713 14.91875291173109
STARS-AO                
1 43679U 18084J   22002.59694851  .00000866  00000+0  89313-4 0  9990
2 43679  97.9514 135.7851 0010342 115.9310 244.2976 14.92808441173192
AUTCUBE 2               
1 43681U 18084K   22002.35160324  .00000659  00000+0  70183-4 0  9995
2 43681  97.9477 134.4134 0010766 111.5272 248.7095 14.92323223173070
IRVINE01                
1 43693U 18088D   22002.14245487  .00011117  00000+0  39672-3 0  9991
2 43693  85.0331  62.6317 0015407  18.9743 341.2073 15.28617016174752
ES'HAIL 2               
1 43700U 18090A   22002.30783449  .00000150  00000+0  00000+0 0  9990
2 43700   0.0273  37.2808 0001625 274.3907 286.8534  1.00270320 11364
FACSAT-1                
1 43721U 18096C   22002.45396145  .00008304  00000+0  28098-3 0  9998
2 43721  97.3701  83.0974 0014246 286.4898 129.2901 15.30769050172548
CENTAURI-2              
1 43722U 18096D   22001.78136466  .00009758  00000+0  31275-3 0  9997
2 43722  97.3737  83.7162 0013873 286.5526  73.4192 15.32472243172503
3CAT-1                  
1 43728U 18096K   22002.60741606  .00010831  00000+0  34387-3 0  9994
2 43728  97.3739  85.2189 0013704 286.5855 181.2344 15.32746736172660
INNOSAT-2               
1 43738U 18096V   22002.56319411  .00016354  00000+0  44823-3 0  9997
2 43738  97.3812  89.6630 0017479 277.6969 206.6066 15.37221587172943
REAKTOR HELLO WORLD     
1 43743U 18096AA  22002.15278217  .00005505  00000+0  19015-3 0  9997
2 43743  97.3709  83.1250 0015027 294.1761  65.7909 15.30249041172502
ELYSIUM STAR 2 & LFF    
1 43760U 18099C   22002.57031477  .00001540  00000+0  13864-3 0  9991
2 43760  97.6514  74.7462 0014784  99.5978 260.6915 14.96969355168297
2018-099D               
1 43761U 18099D   22002.41860469  .00001359  00000+0  12760-3 0  9998
2 43761  97.6460  73.4405 0016201 104.8440 255.4581 14.95473505168209
AISTECHSAT 2            
1 43768U 18099L   22002.49069059  .00000521  00000+0  52525-4 0  9993
2 43768  97.6409  72.1963 0012877 102.5968 257.6694 14.95142429167889
FOX-1CLIFF (AO-95)      
1 43770U 18099N   22002.10805956  .00000764  00000+0  73671-4 0  9992
2 43770  97.6439  72.6966 0015687 111.5238 248.7657 14.95643652168149
RANGE-A                 
1 43772U 18099Q   22002.35877270  .00001422  00000+0  13144-3 0  9999
2 43772  97.6542  74.2704 0015527  98.4275 261.8707 14.96049631168196
RANGE-B                 
1 43773U 18099R   22002.13251502  .00001191  00000+0  11260-3 0  9990
2 43773  97.6370  71.8286 0015010  99.9963 260.2953 14.95451972168135
2018-099T               
1 43775U 18099T   22002.12592178  .00000896  00000+0  85895-4 0  9995
2 43775  97.6440  72.9019 0016022 103.8010 256.4995 14.95491511168140
MOVE-II                 
1 43780U 18099Y   22002.11249657  .00001548  00000+0  14129-3 0  9997
2 43780  97.6467  73.4993 0014394 108.2873 251.9916 14.96442186168179
SNUSAT-2                
1 43782U 18099AA  22002.11001015  .00000679  00000+0  65769-4 0  9994
2 43782  97.6440  73.1086 0013991  98.4942 261.7866 14.95861315168161
SNUGLITE                
1 43784U 18099AC  22002.36789520  .00000644  00000+0  62374-4 0  9998
2 43784  97.6404  73.0361 0016289 104.3312 255.9720 14.96013331168228
ITASAT 1                
1 43786U 18099AE  22002.19128096  .00001060  00000+0  99605-4 0  9996
2 43786  97.6461  73.5932 0016450 105.0775 255.2267 14.95894142168194
KAZSCISAT-1             
1 43787U 18099AF  22002.10583309  .00001253  00000+0  11493-3 0  9992
2 43787  97.6380  72.6498 0015135 101.3821 258.9102 14.96572060168216
EAGLET-I                
1 43790U 18099AJ  22002.44866043  .00000523  00000+0  51362-4 0  9991
2 43790  97.6452  74.3326 0014636 107.2212 253.0612 14.96203353167962
ESEO                    
1 43792U 18099AL  22002.40272511  .00000846  00000+0  80586-4 0  9998
2 43792  97.6414  73.7047 0014837 104.8466 255.4400 14.95876352168003
CSIM-FD                 
1 43793U 18099AM  22002.42720064  .00001327  00000+0  11974-3 0  9991
2 43793  97.6477  74.5231 0014421  99.9786 260.3064 14.97118665168037
ASTROCAST 0.1           
1 43798U 18099AS  22002.43065876  .00001110  00000+0  10242-3 0  9997
2 43798  97.6472  74.6088 0013805  87.7825 272.4977 14.96555854168279
JY1SAT (JO-97)          
1 43803U 18099AX  22002.18561183  .00001144  00000+0  10630-3 0  9996
2 43803  97.6420  73.3247 0016299 104.7110 255.5920 14.96208908168207
SUOMI-100               
1 43804U 18099AY  22002.46341531  .00001413  00000+0  13017-3 0  9992
2 43804  97.6419  73.5434 0016538 104.0319 256.2742 14.96163496168253
AL-FARABI 2             
1 43805U 18099AZ  22002.43033051  .00001448  00000+0  13226-3 0  9995
2 43805  97.6459  73.8509 0016669 102.4796 257.8283 14.96485815168260
CENTAURI-1              
1 43809U 18099BD  22002.41229366  .00001319  00000+0  12211-3 0  9993
2 43809  97.6437  73.8209 0016734 104.6562 255.6516 14.96092169167940
CHOMPTT                 
1 43855U 18104G   22002.48542800  .00003895  00000+0  15377-3 0  9996
2 43855  85.0365 161.5337 0018128 126.9935 233.2971 15.25020648169416
DAVINCI                 
1 43857U 18104J   22002.45348912  .00012953  00000+0  46441-3 0  9994
2 43857  85.0308 160.7504 0013836 148.2943 211.9138 15.28498430169441
UWE-4                   
1 43880U 18111E   22002.23537419  .00001528  00000+0  13679-3 0  9999
2 43880  97.6792 271.4660 0012720 150.0938 210.1013 14.97242701164825
ZACUBE-2                
1 43907U 18111AH  22002.60968023  .00002860  00000+0  11395-3 0  9992
2 43907  97.2111 254.8262 0019445 312.3604 141.3297 15.25842501167999
MICRODRAGON             
1 43935U 19003D   22002.58671624  .00002245  00000+0  94945-4 0  9999
2 43935  97.1577  40.2424 0018810  46.7760 313.5044 15.24036702164423
AOBA VELOX-IV           
1 43940U 19003J   22002.61078551  .00008324  00000+0  28954-3 0  9999
2 43940  97.1534  44.1928 0021758  24.8878 335.3407 15.29724466164720
M6P                     
1 44109U 19018AF  22002.14989494  .00006534  00000+0  18713-3 0  9991
2 44109  97.4125  85.1646 0053161   5.8185 354.3664 15.34850269153914
FORMOSAT 7-4            
1 44350U 19036M   22001.57154422  .00002196  00000+0  11668-3 0  9992
2 44350  24.0004  90.3035 0005408 250.5770 109.4149 15.08238845138230
PAINANI 1               
1 44365U 19037A   22002.06846117  .00012118  00000+0  26172-3 0  9994
2 44365  45.0020 228.5965 0005963 269.2520  90.7687 15.44617496141449
ACRUX 1                 
1 44369U 19037E   22001.72998102  .00032773  00000+0  48536-3 0  9999
2 44369  45.0011 194.9929 0012669 275.1796  84.7652 15.54653646141769
METEOR-M2 2             
1 44387U 19038A   22002.50412950 -.00000009  00000+0  15170-4 0  9996
2 44387  98.6996 324.8307 0002233  58.1079 302.0309 14.23696439129794
VDNH-80                 
1 44392U 19038G   22002.47240664  .00004525  00000+0  24710-3 0  9994
2 44392  97.6137 331.7283 0020554 350.8668 130.9329 15.14667138137703
D-STAR ONE (LIGHTSAT)   
1 44393U 19038H   22002.19502912  .00004157  00000+0  22779-3 0  9995
2 44393  97.6152 331.3164 0020680 352.3093   7.7818 15.14592289137858
